[{"OBJECT_NAME":"STARLINK-3979","OBJECT_ID":"2022-052L","EPOCH":"2026-03-09T20:14:38.880384","MEAN_MOTION":15.0882868,"ECCENTRICITY":0.00012068,"INCLINATION":53.216,"RA_OF_ASC_NODE":278.4314,"ARG_OF_PERICENTER":87.0054,"MEAN_ANOMALY":273.1076,"EPHEMERIS_TYPE":0,"CLASSIFICATION_TYPE":"U","NORAD_CAT_ID":52608,"ELEMENT_SET_NO":999,"REV_AT_EPOCH":21088,"BSTAR":4.5176425e-5,"MEAN_MOTION_DOT":4.31e-6,"MEAN_MOTION_DDOT":0},{"OBJECT_NAME":"CZ-6A DEB","OBJECT_ID":"2024-126C","EPOCH":"2026-03-09T22:45:09.534528","MEAN_MOTION":15.08339588,"ECCENTRICITY":0.00034995,"INCLINATION":97.8272,"RA_OF_ASC_NODE":88.0703,"ARG_OF_PERICENTER":249.9832,"MEAN_ANOMALY":110.1019,"EPHEMERIS_TYPE":0,"CLASSIFICATION_TYPE":"U","NORAD_CAT_ID":60213,"ELEMENT_SET_NO":999,"REV_AT_EPOCH":9177,"BSTAR":0.0010886629,"MEAN_MOTION_DOT":0.00016868,"MEAN_MOTION_DDOT":0}]
